PERSEUS-M1              
1 40039U 14033AF  26160.74373003  .00001507  00000+0  14104-3 0  9994
2 40039  97.9644 104.7538 0010738 329.6595  30.4002 14.95610933649529
POLYITAN-1              
1 40042U 14033AJ  26160.61176760  .00017344  00000+0  54587-3 0  9990
2 40042  98.0951 186.1578 0008078 163.3411 196.8096 15.32990302652435
TIGRISAT                
1 40043U 14033AK  26160.70464997  .00002155  00000+0  25246-3 0  9997
2 40043  97.7823 310.8886 0050703  99.0925 261.6032 14.85133283644510
AEROCUBE 6A             
1 40045U 14033AM  26160.34225895  .00005160  00000+0  43491-3 0  9992
2 40045  97.7224 327.3751 0039349  44.0714 316.3633 14.98021109645445
AEROCUBE 6B             
1 40046U 14033AN  26160.35224349  .00005861  00000+0  47495-3 0  9993
2 40046  97.7232 327.1573 0038933  35.9586 324.4245 14.99486502645586
CANX-4                  
1 40055U 14034C   26160.38355200  .00000839  00000+0  11496-3 0  9990
2 40055  98.3132  35.4098 0013670  40.8785 319.3449 14.81250099643375
CANX-5                  
1 40056U 14034D   26160.65227713  .00000885  00000+0  12067-3 0  9994
2 40056  98.3134  35.7317 0013665  40.1713 320.0506 14.81268050634226
UKUBE-1                 
1 40074U 14037F   26160.76359553  .00008577  00000+0  48408-3 0  9991
2 40074  98.4238 163.2558 0002164 144.4016 215.7357 15.13433815647432
BRITE-PL2 (HEWELIUSZ)   
1 40119U 14049B   26160.54008978  .00001894  00000+0  18026-3 0  9990
2 40119  97.9090 272.4818 0015166 131.1884 229.0646 14.94569959640301
AEROCUBE 5C             
1 40965U 15058B   26160.79492716  .00002323  00000+0  21217-3 0  9998
2 40965  64.7678 285.5863 0130467  66.1701 295.3024 14.91419246364552
AEROCUBE 7              
1 40966U 15058C   26160.74548106  .00003208  00000+0  26281-3 0  9998
2 40966  64.7626 268.1238 0120177  64.6656 296.6847 14.95678549364844
FOX-1A (AO-85)          
1 40967U 15058D   26160.70596556  .00002470  00000+0  22772-3 0  9998
2 40967  64.7760 302.2326 0130020  59.5181 301.8695 14.90933571112458
SINOD-D 1               
1 40968U 15058E   26160.72432591  .00003290  00000+0  26884-3 0  9998
2 40968  64.7758 282.2824 0118619  56.0584 305.1740 14.95857939115544
SNAP-3 ALICE            
1 40970U 15058G   26160.28454996  .00107658  00000+0  13677-2 0  9993
2 40970  64.7496 131.2113 0030360  16.9431 343.2720 15.58274483115652
LMRST-SAT               
1 40971U 15058H   26160.79355389  .00002276  00000+0  21230-3 0  9991
2 40971  64.7764 298.2842 0131692  61.5084 299.9217 14.90556571112453
SNAP-3 EDDIE            
1 40972U 15058J   26160.28080398  .00107828  00000+0  13103-2 0  9999
2 40972  64.7419 122.0068 0030185  21.1073 339.1310 15.59448461117797
PROPCUBE 3              
1 40973U 15058K   26160.71341266  .00002851  00000+0  24253-3 0  9991
2 40973  64.7691 275.8858 0123701  62.8651 298.5014 14.94216113113683
BISONSAT                
1 40974U 15058L   26160.44749113  .00008692  00000+0  42588-3 0  9995
2 40974  64.7591 198.6642 0078452  50.4592 310.3430 15.16027465114440
SNAP-3 JIMI             
1 40975U 15058M   26160.60019345  .00004229  00000+0  29587-3 0  9997
2 40975  64.7650 243.7760 0105806  58.4680 302.6719 15.02233651113084
PROPCUBE 1 (FLORA)      
1 40976U 15058N   26160.74168975  .00002411  00000+0  23270-3 0  9991
2 40976  64.7754 318.3116 0130425  63.8346 297.6111 14.89187147115159
SINOD-D 3               
1 40977U 15058P   26160.74387688  .00003210  00000+0  27593-3 0  9996
2 40977  64.7732 299.0615 0118901  61.0958 300.2021 14.93968757113641
HORYU-4                 
1 41340U 16012D   26160.60641617  .00314650  00000+0  95463-3 0  9996
2 41340  30.9843 134.4701 0003309 221.6087 138.4322 15.90197019569603
RAVAN                   
1 41849U 16067B   26160.44697859  .00045410  00000+0  70240-3 0  9992
2 41849  97.9901  49.1286 0005562  52.3826 307.7930 15.53933589526493
CELTEE 1                
1 41850U 16067C   26160.37141009  .00004943  00000+0  23578-3 0  9995
2 41850  98.0677  26.4054 0000637 110.8167 249.3134 15.19605176524691
OPTICUBE 04             
1 41851U 16067D   26160.52302426  .00002262  00000+0  14469-3 0  9996
2 41851  98.0713  12.4071 0016533 139.6527 220.5931 15.09628455524014
AEROCUBE 8D             
1 41852U 16067E   26160.60660457  .00006876  00000+0  28467-3 0  9995
2 41852  98.0698  30.2015 0004252 142.1108 218.0427 15.24291902524913
AEROCUBE 8C             
1 41853U 16067F   26160.56719183  .00007185  00000+0  29504-3 0  9999
2 41853  98.0570  27.3966 0006817  89.6208 270.5809 15.24537423524907
CORVUS BC2              
1 42846U 17042X   26159.89095627  .00002800  00000+0  19451-3 0  9999
2 42846  97.4057 321.5648 0014217 135.9338 224.3026 15.06243536485814
CORVUS BC1              
1 42847U 17042Y   26160.41790511  .00002600  00000+0  18014-3 0  9996
2 42847  97.4082 322.8801 0013261 112.9498 247.3131 15.06412944485923
MAKERSAT 0              
1 43016U 17073D   26160.60314125  .00018349  00000+0  50229-3 0  9994
2 43016  97.4634  43.0634 0105803 300.5026  58.5802 15.31830106465306
