OBJECT_NAME,OBJECT_ID,EPOCH,MEAN_MOTION,ECCENTRICITY,INCLINATION,RA_OF_ASC_NODE,ARG_OF_PERICENTER,MEAN_ANOMALY,EPHEMERIS_TYPE,CLASSIFICATION_TYPE,NORAD_CAT_ID,ELEMENT_SET_NO,REV_AT_EPOCH,BSTAR,MEAN_MOTION_DOT,MEAN_MOTION_DDOT
PERSEUS-M1,2014-033AF,2026-06-09T17:50:58.274592,14.95610933,.00107387,97.9644,104.7538,329.6595,30.4002,0,U,40039,999,64952,.1410423E-3,.1507E-4,0
POLYITAN-1,2014-033AJ,2026-06-09T14:40:56.720640,15.32990302,.00080781,98.0951,186.1578,163.3411,196.8096,0,U,40042,999,65243,.54587249E-3,.17344E-3,0
TIGRISAT,2014-033AK,2026-06-09T16:54:41.757408,14.85133283,.00507036,97.7823,310.8886,99.0925,261.6032,0,U,40043,999,64451,.25246185E-3,.2155E-4,0
AEROCUBE 6A,2014-033AM,2026-06-09T08:12:51.173280,14.98021109,.00393497,97.7224,327.3751,44.0714,316.3633,0,U,40045,999,64544,.4349104E-3,.516E-4,0
AEROCUBE 6B,2014-033AN,2026-06-09T08:27:13.837536,14.99486502,.00389335,97.7232,327.1573,35.9586,324.4245,0,U,40046,999,64558,.474951E-3,.5861E-4,0
CANX-4,2014-034C,2026-06-09T09:12:18.892800,14.81250099,.00136702,98.3132,35.4098,40.8785,319.3449,0,U,40055,999,64337,.11495601E-3,.839E-5,0
CANX-5,2014-034D,2026-06-09T15:39:16.744032,14.81268050,.00136657,98.3134,35.7317,40.1713,320.0506,0,U,40056,999,63422,.12067214E-3,.885E-5,0
UKUBE-1,2014-037F,2026-06-09T18:19:34.653792,15.13433815,.00021643,98.4238,163.2558,144.4016,215.7357,0,U,40074,999,64743,.48407735E-3,.8577E-4,0
BRITE-PL2 (HEWELIUSZ),2014-049B,2026-06-09T12:57:43.756992,14.94569959,.00151668,97.9090,272.4818,131.1884,229.0646,0,U,40119,999,64030,.18026139E-3,.1894E-4,0
AEROCUBE 5C,2015-058B,2026-06-09T19:04:41.706624,14.91419246,.01304679,64.7678,285.5863,66.1701,295.3024,0,U,40965,999,36455,.21217027E-3,.2323E-4,0
AEROCUBE 7,2015-058C,2026-06-09T17:53:29.563584,14.95678549,.01201778,64.7626,268.1238,64.6656,296.6847,0,U,40966,999,36484,.26280527E-3,.3208E-4,0
FOX-1A (AO-85),2015-058D,2026-06-09T16:56:35.424384,14.90933571,.01300202,64.7760,302.2326,59.5181,301.8695,0,U,40967,999,11245,.22771785E-3,.247E-4,0
SINOD-D 1,2015-058E,2026-06-09T17:23:01.758624,14.95857939,.01186199,64.7758,282.2824,56.0584,305.1740,0,U,40968,999,11554,.2688423E-3,.329E-4,0
SNAP-3 ALICE,2015-058G,2026-06-09T06:49:45.116544,15.58274483,.00303608,64.7496,131.2113,16.9431,343.2720,0,U,40970,999,11565,.13676752E-2,.107658E-2,0
LMRST-SAT,2015-058H,2026-06-09T19:02:43.056096,14.90556571,.01316926,64.7764,298.2842,61.5084,299.9217,0,U,40971,999,11245,.2123027E-3,.2276E-4,0
SNAP-3 EDDIE,2015-058J,2026-06-09T06:44:21.463872,15.59448461,.00301853,64.7419,122.0068,21.1073,339.1310,0,U,40972,999,11779,.13102802E-2,.107828E-2,0
PROPCUBE 3,2015-058K,2026-06-09T17:07:18.853824,14.94216113,.01237014,64.7691,275.8858,62.8651,298.5014,0,U,40973,999,11368,.24253182E-3,.2851E-4,0
BISONSAT,2015-058L,2026-06-09T10:44:23.233632,15.16027465,.0078452,64.7591,198.6642,50.4592,310.3430,0,U,40974,999,11444,.42588205E-3,.8692E-4,0
SNAP-3 JIMI,2015-058M,2026-06-09T14:24:16.714080,15.02233651,.01058062,64.7650,243.7760,58.4680,302.6719,0,U,40975,999,11308,.29586767E-3,.4229E-4,0
PROPCUBE 1 (FLORA),2015-058N,2026-06-09T17:48:01.994400,14.89187147,.01304256,64.7754,318.3116,63.8346,297.6111,0,U,40976,999,11515,.23269962E-3,.2411E-4,0
SINOD-D 3,2015-058P,2026-06-09T17:51:10.962432,14.93968757,.01189012,64.7732,299.0615,61.0958,300.2021,0,U,40977,999,11364,.27592894E-3,.321E-4,0
HORYU-4,2016-012D,2026-06-09T14:33:14.357088,15.90197019,.00033092,30.9843,134.4701,221.6087,138.4322,0,U,41340,999,56960,.9546339E-3,.31465E-2,0
RAVAN,2016-067B,2026-06-09T10:43:38.950176,15.53933589,.00055625,97.9901,49.1286,52.3826,307.7930,0,U,41849,999,52649,.70240452E-3,.4541E-3,0
CELTEE 1,2016-067C,2026-06-09T08:54:49.831776,15.19605176,.00006376,98.0677,26.4054,110.8167,249.3134,0,U,41850,999,52469,.23577806E-3,.4943E-4,0
OPTICUBE 04,2016-067D,2026-06-09T12:33:09.296064,15.09628455,.00165331,98.0713,12.4071,139.6527,220.5931,0,U,41851,999,52401,.14469281E-3,.2262E-4,0
AEROCUBE 8D,2016-067E,2026-06-09T14:33:30.634848,15.24291902,.00042528,98.0698,30.2015,142.1108,218.0427,0,U,41852,999,52491,.28467076E-3,.6876E-4,0
AEROCUBE 8C,2016-067F,2026-06-09T13:36:45.374112,15.24537423,.00068171,98.0570,27.3966,89.6208,270.5809,0,U,41853,999,52490,.29503662E-3,.7185E-4,0
CORVUS BC2,2017-042X,2026-06-08T21:22:58.621728,15.06243536,.00142172,97.4057,321.5648,135.9338,224.3026,0,U,42846,999,48581,.19451319E-3,.28E-4,0
CORVUS BC1,2017-042Y,2026-06-09T10:01:47.001504,15.06412944,.00132619,97.4082,322.8801,112.9498,247.3131,0,U,42847,999,48592,.18013503E-3,.26E-4,0
MAKERSAT 0,2017-073D,2026-06-09T14:28:31.404000,15.31830106,.01058039,97.4634,43.0634,300.5026,58.5802,0,U,43016,999,46530,.50228558E-3,.18349E-3,0
